STARLINK-30701
1 57950U 23148R   25334.62070837  .00000151  00000+0  17242-4 0  9990
2 57950  53.1606 124.4843 0001192  83.8599 276.2538 15.30191742123259